NORAD_CAT_ID,OBJECT_NAME,OBJECT_TYPE,EPOCH,MEAN_MOTION,ECCENTRICITY,INCLINATION,RA_OF_ASC_NODE,ARG_OF_PERICENTER,MEAN_ANOMALY,BSTAR,MEAN_MOTION_DOT,MEAN_MOTION_DDOT,TLE_LINE0,TLE_LINE1,TLE_LINE2,SEMIMAJOR_AXIS,PERIOD,APOGEE,PERIGEE,DECAYED
52496.0,STARLINK-3871,PAYLOAD,2024-05-26 02:45:54,15.08831294,0.0001318,53.2173,93.6382,104.3003,255.8135,-9.6519e-05,-1.823e-05,0.0,0 STARLINK-3871,1 52496U 22049AX  24147.11520953 -.00001823  00000-0 -96519-4 0  9997,2 52496  53.2173  93.6382 0001318 104.3003 255.8135 15.08831294113942,6917.907,95.438,540.684,538.86,0.0
52496.0,STARLINK-3871,PAYLOAD,2024-05-26 05:56:39,15.08853179,0.0001266,53.2175,93.0477,83.2262,276.8874,-0.00025823,-4.397e-05,0.0,0 STARLINK-3871,1 52496U 22049AX  24147.24767856 -.00004397  00000-0 -25823-3 0  9994,2 52496  53.2175  93.0477 0001266  83.2262 276.8874 15.08853179113968,6917.84,95.437,540.581,538.829,0.0
52496.0,STARLINK-3871,PAYLOAD,2024-05-26 20:15:08,15.08841432,0.0001486,53.218,90.3691,103.8011,256.3146,-3.6015e-05,-8.61e-06,0.0,0 STARLINK-3871,1 52496U 22049AX  24147.84384528 -.00000861  00000-0 -36015-4 0  9999,2 52496  53.2180  90.3691 0001486 103.8011 256.3146 15.08841432114052,6917.876,95.437,540.769,538.713,0.0
52496.0,STARLINK-3871,PAYLOAD,2024-05-27 05:47:26,15.08846148,0.0001441,53.217,88.5852,101.2864,258.829,0.00010502,1.384e-05,0.0,0 STARLINK-3871,1 52496U 22049AX  24148.24128013  .00001384  00000-0  10502-3 0  9990,2 52496  53.2170  88.5852 0001441 101.2864 258.8290 15.08846148114111,6917.862,95.437,540.723,538.73,0.0
52496.0,STARLINK-3871,PAYLOAD,2024-05-28 02:27:28,15.08835774,0.0001347,53.2169,84.7185,101.3622,258.7521,0.00017844,2.553e-05,0.0,0 STARLINK-3871,1 52496U 22049AX  24149.10240859  .00002553  00000-0  17844-3 0  9994,2 52496  53.2169  84.7185 0001347 101.3622 258.7521 15.08835774114247,6917.893,95.438,540.69,538.826,0.0
52496.0,STARLINK-3871,PAYLOAD,2024-05-28 05:38:14,15.08837095,0.0001357,53.2169,84.1237,101.3598,258.7546,0.00018435,2.647e-05,0.0,0 STARLINK-3871,1 52496U 22049AX  24149.23488833  .00002647  00000-0  18435-3 0  9995,2 52496  53.2169  84.1237 0001357 101.3598 258.7546 15.08837095114269,6917.889,95.438,540.693,538.816,0.0
52496.0,STARLINK-3871,PAYLOAD,2024-05-29 05:29:00,15.08844934,0.000141,53.2179,79.6632,98.0382,262.077,7.4327e-05,8.95e-06,0.0,0 STARLINK-3871,1 52496U 22049AX  24150.22848280  .00000895  00000-0  74327-4 0  9998,2 52496  53.2179  79.6632 0001410  98.0382 262.0770 15.08844934114415,6917.865,95.437,540.706,538.755,0.0
52496.0,STARLINK-3871,PAYLOAD,2024-05-29 22:58:16,15.08831691,0.0001429,53.2182,76.3917,98.8967,261.2187,0.00012218,1.657e-05,0.0,0 STARLINK-3871,1 52496U 22049AX  24150.95713178  .00001657  00000-0  12218-3 0  9992,2 52496  53.2182  76.3917 0001429  98.8967 261.2187 15.08831691114527,6917.906,95.438,540.759,538.782,0.0
52496.0,STARLINK-3871,PAYLOAD,2024-05-30 03:44:25,15.08843334,0.0001479,53.2186,75.499,105.8795,254.236,2.574e-05,1.22e-06,0.0,0 STARLINK-3871,1 52496U 22049AX  24151.15584677  .00000122  00000-0  25740-4 0  9996,2 52496  53.2186  75.4990 0001479 105.8795 254.2360 15.08843334114550,6917.87,95.437,540.758,538.712,0.0
52496.0,STARLINK-3871,PAYLOAD,2024-05-31 05:10:34,15.08846734,0.000151,53.2196,70.7405,92.9007,267.2158,0.00014801,2.069e-05,0.0,0 STARLINK-3871,1 52496U 22049AX  24152.21568209  .00002069  00000-0  14801-3 0  9994,2 52496  53.2196  70.7405 0001510  92.9007 267.2158 15.08846734114712,6917.86,95.437,540.769,538.68,0.0
52496.0,STARLINK-3871,PAYLOAD,2024-05-31 05:10:36,15.08789958,0.0001918,53.2195,70.7409,96.2091,263.9119,0.00099236,0.00015519,0.0,0 STARLINK-3871,1 52496U 22049AX  24152.21570136  .00015519  00000-0  99236-3 0  9995,2 52496  53.2195  70.7409 0001918  96.2091 263.9119 15.08789958114711,6918.033,95.441,541.225,538.571,0.0
52496.0,STARLINK-3871,PAYLOAD,2024-05-31 22:39:51,15.08824645,0.0001626,53.22,67.4733,88.4573,271.6606,-2.6209e-06,-3.3e-06,0.0,0 STARLINK-3871,1 52496U 22049AX  24152.94434097 -.00000330  00000-0 -26209-5 0  9999,2 52496  53.2200  67.4733 0001626  88.4573 271.6606 15.08824645114827,6917.927,95.439,540.917,538.667,0.0
52496.0,STARLINK-3871,PAYLOAD,2024-06-01 03:26:00,15.08829135,0.0001645,53.2194,66.5785,84.8199,275.2981,-2.4392e-05,-6.76e-06,0.0,0 STARLINK-3871,1 52496U 22049AX  24153.14306042 -.00000676  00000-0 -24392-4 0  9993,2 52496  53.2194  66.5785 0001645  84.8199 275.2981 15.08829135114859,6917.914,95.438,540.917,538.641,0.0
52496.0,STARLINK-3871,PAYLOAD,2024-06-01 11:22:55,15.08830286,0.0001686,53.2187,65.0943,91.939,268.1795,-5.8547e-05,-1.219e-05,0.0,0 STARLINK-3871,1 52496U 22049AX  24153.47425559 -.00001219  00000-0 -58547-4 0  9997,2 52496  53.2187  65.0943 0001686  91.9390 268.1795 15.08830286114907,6917.91,95.438,540.941,538.609,0.0
52496.0,STARLINK-3871,PAYLOAD,2024-06-02 03:16:46,15.08849838,0.0001554,53.2169,62.1213,97.5131,262.6037,0.00037053,5.615e-05,0.0,0 STARLINK-3871,1 52496U 22049AX  24154.13665023  .00005615  00000-0  37053-3 0  9993,2 52496  53.2169  62.1213 0001554  97.5131 262.6037 15.08849838115007,6917.85,95.437,540.79,538.64,0.0
52496.0,STARLINK-3871,PAYLOAD,2024-06-02 11:13:42,15.08837639,0.000156,53.2166,60.6331,100.8853,259.2314,0.00033166,4.994e-05,0.0,0 STARLINK-3871,1 52496U 22049AX  24154.46785546  .00004994  00000-0  33166-3 0  9992,2 52496  53.2166  60.6331 0001560 100.8853 259.2314 15.08837639115055,6917.888,95.438,540.832,538.673,0.0
52496.0,STARLINK-3871,PAYLOAD,2024-06-02 17:35:15,15.08837062,0.000187,53.2164,59.4424,96.9765,263.144,0.00026415,3.918e-05,0.0,0 STARLINK-3871,1 52496U 22049AX  24154.73281763  .00003918  00000-0  26415-3 0  9998,2 52496  53.2164  59.4424 0001870  96.9765 263.1440 15.08837062115091,6917.889,95.438,541.048,538.461,0.0
52496.0,STARLINK-3871,PAYLOAD,2024-06-03 11:04:29,15.08852124,0.0001479,53.2158,56.1718,103.9519,256.1638,0.00042768,6.527e-05,0.0,0 STARLINK-3871,1 52496U 22049AX  24155.46145194  .00006527  00000-0  42768-3 0  9994,2 52496  53.2158  56.1718 0001479 103.9519 256.1638 15.08852124115205,6917.843,95.437,540.731,538.685,0.0
52496.0,STARLINK-3871,PAYLOAD,2024-06-03 17:26:01,15.08851744,0.0001582,53.2155,54.9841,95.6428,264.4745,0.00034246,5.168e-05,0.0,0 STARLINK-3871,1 52496U 22049AX  24155.72641162  .00005168  00000-0  34246-3 0  9991,2 52496  53.2155  54.9841 0001582  95.6428 264.4745 15.08851744115248,6917.844,95.437,540.804,538.615,0.0
52496.0,STARLINK-3871,PAYLOAD,2024-06-04 02:58:20,15.08856117,0.0001579,53.2169,53.2005,93.194,266.9232,0.00036019,5.452e-05,0.0,0 STARLINK-3871,1 52496U 22049AX  24156.12384803  .00005452  00000-0  36019-3 0  9998,2 52496  53.2169  53.2005 0001579  93.1940 266.9232 15.08856117115309,6917.831,95.437,540.788,538.604,0.0
52496.0,STARLINK-3871,PAYLOAD,2024-06-05 02:49:08,15.08830407,0.000124,53.217,48.7408,88.6288,271.4846,-3.8554e-05,-9.01e-06,0.0,0 STARLINK-3871,1 52496U 22049AX  24157.11746049 -.00000901  00000-0 -38554-4 0  9995,2 52496  53.2170  48.7408 0001240  88.6288 271.4846 15.08830407115458,6917.91,95.438,540.633,538.917,0.0
52496.0,STARLINK-3871,PAYLOAD,2024-06-06 02:39:54,15.08851416,0.0001654,53.2172,44.2799,87.5054,272.6128,0.00035586,5.382e-05,0.0,0 STARLINK-3871,1 52496U 22049AX  24158.11105191  .00005382  00000-0  35586-3 0  9990,2 52496  53.2172  44.2799 0001654  87.5054 272.6128 15.08851416115608,6917.845,95.437,540.855,538.566,0.0
52496.0,STARLINK-3871,PAYLOAD,2024-06-06 09:01:27,15.08853088,0.0001814,53.2177,43.0892,84.6291,275.4909,0.00044865,6.862e-05,0.0,0 STARLINK-3871,1 52496U 22049AX  24158.37601352  .00006862  00000-0  44865-3 0  9992,2 52496  53.2177  43.0892 0001814  84.6291 275.4909 15.08853088115642,6917.84,95.437,540.96,538.45,0.0
52496.0,STARLINK-3871,PAYLOAD,2024-06-07 00:55:19,15.08844366,0.0002305,53.2196,40.1202,88.5093,271.6163,7.0714e-05,8.37e-06,0.0,0 STARLINK-3871,1 52496U 22049AX  24159.03841806  .00000837  00000-0  70714-4 0  9995,2 52496  53.2196  40.1202 0002305  88.5093 271.6163 15.08844366115745,6917.867,95.437,541.327,538.137,0.0
52496.0,STARLINK-3871,PAYLOAD,2024-06-07 08:52:15,15.08842998,0.0001966,53.218,38.6298,79.4879,280.6335,7.7424e-05,9.44e-06,0.0,0 STARLINK-3871,1 52496U 22049AX  24159.36961825  .00000944  00000-0  77424-4 0  9999,2 52496  53.2180  38.6298 0001966  79.4879 280.6335 15.08842998115793,6917.871,95.437,541.096,538.376,0.0
52496.0,STARLINK-3871,PAYLOAD,2024-06-08 08:43:01,15.08840383,0.0001603,53.2182,34.1679,86.1247,273.9928,2.9866e-05,1.87e-06,0.0,0 STARLINK-3871,1 52496U 22049AX  24160.36321582  .00000187  00000-0  29866-4 0  9997,2 52496  53.2182  34.1679 0001603  86.1247 273.9928 15.08840383115947,6917.879,95.438,540.853,538.635,0.0
52496.0,STARLINK-3871,PAYLOAD,2024-06-09 00:36:52,15.08847425,0.0001458,53.2194,31.1929,93.7453,266.3706,0.00013785,1.907e-05,0.0,0 STARLINK-3871,1 52496U 22049AX  24161.02561258  .00001907  00000-0  13785-3 0  9990,2 52496  53.2194  31.1929 0001458  93.7453 266.3706 15.08847425116042,6917.858,95.437,540.731,538.714,0.0
52496.0,STARLINK-3871,PAYLOAD,2024-06-09 21:16:54,15.08835928,0.0001425,53.2189,27.3283,87.146,272.9696,7.8805e-05,9.66e-06,0.0,0 STARLINK-3871,1 52496U 22049AX  24161.88674134  .00000966  00000-0  78805-4 0  9991,2 52496  53.2189  27.3283 0001425  87.1460 272.9696 15.08835928116175,6917.893,95.438,540.744,538.772,0.0
52496.0,STARLINK-3871,PAYLOAD,2024-06-09 22:52:17,15.08842518,0.0001471,53.2184,27.0323,86.5092,273.6068,1.5364e-05,-4.3e-07,0.0,0 STARLINK-3871,1 52496U 22049AX  24161.95297866 -.00000043  00000-0  15364-4 0  9990,2 52496  53.2184  27.0323 0001471  86.5092 273.6068 15.08842518116182,6917.873,95.437,540.755,538.72,0.0
52496.0,STARLINK-3871,PAYLOAD,2024-06-10 08:24:36,15.08843239,0.0001499,53.2185,25.2495,86.4398,273.6766,5.2089e-05,5.41e-06,0.0,0 STARLINK-3871,1 52496U 22049AX  24162.35041895  .00000541  00000-0  52089-4 0  9991,2 52496  53.2185  25.2495 0001499  86.4398 273.6766 15.08843239116244,6917.87,95.437,540.772,538.698,0.0
